TWILIGHT H              
1 67370U 26004H   26036.16964571  .00007242  00000+0  80511-3 0  9993
2 67370  97.7957  36.8989 0006107 208.3480 151.7405 14.87444288  3669
TWILIGHT J              
1 67371U 26004J   26036.16375321  .00009394  00000+0  10318-2 0  9990
2 67371  97.7999  36.9138 0005493 190.7572 169.3528 14.87860562  3664
TWILIGHT K              
1 67372U 26004K   26036.22663927  .00004019  00000+0  44391-3 0  9998
2 67372  97.7977  36.9810 0003807 184.0115 176.1072 14.87977699  3675
TWILIGHT L              
1 67373U 26004L   26036.23314554  .00003552  00000+0  39683-3 0  9998
2 67373  97.7990  36.9757 0005310 197.2286 162.8751 14.87581403  3677
TWILIGHT M              
1 67374U 26004M   26036.22763414  .00003870  00000+0  42811-3 0  9991
2 67374  97.7975  36.9783 0004091 185.0133 175.1043 14.87940939  3675
TWILIGHT N              
1 67375U 26004N   26036.15995914  .00003910  00000+0  43217-3 0  9992
2 67375  97.8012  36.9224 0004686 181.1101 179.0106 14.87960801  3663
TWILIGHT P              
1 67376U 26004P   26036.16241385  .00003777  00000+0  41939-3 0  9990
2 67376  97.8009  36.9180 0005005 187.4012 172.7131 14.87802204  3667
TWILIGHT Q              
1 67377U 26004Q   26036.22693351  .00003811  00000+0  42127-3 0  9991
2 67377  97.8012  36.9885 0004691 179.7317 180.3903 14.87980572  3663
TWILIGHT R              
1 67378U 26004R   26036.16361504  .00003484  00000+0  38795-3 0  9999
2 67378  97.7983  36.9100 0004354 195.9511 164.1569 14.87734482  3656
TWILIGHT S              
1 67379U 26004S   26036.23069402  .00003927  00000+0  43641-3 0  9998
2 67379  97.7987  36.9782 0004878 192.6637 167.4458 14.87743112  3665
TWILIGHT T              
1 67380U 26004T   26036.16191537  .00003625  00000+0  40236-3 0  9999
2 67380  97.7979  36.9121 0004419 191.3051 168.8067 14.87843584  3656
TWILIGHT U              
1 67381U 26004U   26036.22687447  .00004805  00000+0  52926-3 0  9997
2 67381  97.8016  36.9910 0004845 181.2105 178.9100 14.87995058  3662
