CCSDS_OMM_VERS = 2.0
CREATION_DATE  = 
ORIGINATOR     = 

OBJECT_NAME    = TWILIGHT H
OBJECT_ID      = 2026-004H
CENTER_NAME    = EARTH
REF_FRAME      = TEME
TIME_SYSTEM    = UTC
MEAN_ELEMENT_THEORY = SGP/SGP4

EPOCH          = 2026-02-05T04:04:17.389344
MEAN_MOTION    = 14.87444288
ECCENTRICITY   = .00061075
INCLINATION    = 97.7957
RA_OF_ASC_NODE = 36.8989
ARG_OF_PERICENTER = 208.3480
MEAN_ANOMALY   = 151.7405

EPHEMERIS_TYPE = 0
CLASSIFICATION_TYPE = U
NORAD_CAT_ID   = 67370
ELEMENT_SET_NO = 999
REV_AT_EPOCH   = 366
BSTAR          = .8051114E-3
MEAN_MOTION_DOT = .7242E-4
MEAN_MOTION_DDOT = 0

CCSDS_OMM_VERS = 2.0
CREATION_DATE  = 
ORIGINATOR     = 

OBJECT_NAME    = TWILIGHT J
OBJECT_ID      = 2026-004J
CENTER_NAME    = EARTH
REF_FRAME      = TEME
TIME_SYSTEM    = UTC
MEAN_ELEMENT_THEORY = SGP/SGP4

EPOCH          = 2026-02-05T03:55:48.277344
MEAN_MOTION    = 14.87860562
ECCENTRICITY   = .00054934
INCLINATION    = 97.7999
RA_OF_ASC_NODE = 36.9138
ARG_OF_PERICENTER = 190.7572
MEAN_ANOMALY   = 169.3528

EPHEMERIS_TYPE = 0
CLASSIFICATION_TYPE = U
NORAD_CAT_ID   = 67371
ELEMENT_SET_NO = 999
REV_AT_EPOCH   = 366
BSTAR          = .10318466E-2
MEAN_MOTION_DOT = .9394E-4
MEAN_MOTION_DDOT = 0

CCSDS_OMM_VERS = 2.0
CREATION_DATE  = 
ORIGINATOR     = 

OBJECT_NAME    = TWILIGHT K
OBJECT_ID      = 2026-004K
CENTER_NAME    = EARTH
REF_FRAME      = TEME
TIME_SYSTEM    = UTC
MEAN_ELEMENT_THEORY = SGP/SGP4

EPOCH          = 2026-02-05T05:26:21.632928
MEAN_MOTION    = 14.87977699
ECCENTRICITY   = .00038075
INCLINATION    = 97.7977
RA_OF_ASC_NODE = 36.9810
ARG_OF_PERICENTER = 184.0115
MEAN_ANOMALY   = 176.1072

EPHEMERIS_TYPE = 0
CLASSIFICATION_TYPE = U
NORAD_CAT_ID   = 67372
ELEMENT_SET_NO = 999
REV_AT_EPOCH   = 367
BSTAR          = .44391421E-3
MEAN_MOTION_DOT = .4019E-4
MEAN_MOTION_DDOT = 0

CCSDS_OMM_VERS = 2.0
CREATION_DATE  = 
ORIGINATOR     = 

OBJECT_NAME    = TWILIGHT L
OBJECT_ID      = 2026-004L
CENTER_NAME    = EARTH
REF_FRAME      = TEME
TIME_SYSTEM    = UTC
MEAN_ELEMENT_THEORY = SGP/SGP4

EPOCH          = 2026-02-05T05:35:43.774656
MEAN_MOTION    = 14.87581403
ECCENTRICITY   = .00053102
INCLINATION    = 97.7990
RA_OF_ASC_NODE = 36.9757
ARG_OF_PERICENTER = 197.2286
MEAN_ANOMALY   = 162.8751

EPHEMERIS_TYPE = 0
CLASSIFICATION_TYPE = U
NORAD_CAT_ID   = 67373
ELEMENT_SET_NO = 999
REV_AT_EPOCH   = 367
BSTAR          = .39683236E-3
MEAN_MOTION_DOT = .3552E-4
MEAN_MOTION_DDOT = 0

CCSDS_OMM_VERS = 2.0
CREATION_DATE  = 
ORIGINATOR     = 

OBJECT_NAME    = TWILIGHT M
OBJECT_ID      = 2026-004M
CENTER_NAME    = EARTH
REF_FRAME      = TEME
TIME_SYSTEM    = UTC
MEAN_ELEMENT_THEORY = SGP/SGP4

EPOCH          = 2026-02-05T05:27:47.589696
MEAN_MOTION    = 14.87940939
ECCENTRICITY   = .00040916
INCLINATION    = 97.7975
RA_OF_ASC_NODE = 36.9783
ARG_OF_PERICENTER = 185.0133
MEAN_ANOMALY   = 175.1043

EPHEMERIS_TYPE = 0
CLASSIFICATION_TYPE = U
NORAD_CAT_ID   = 67374
ELEMENT_SET_NO = 999
REV_AT_EPOCH   = 367
BSTAR          = .42810726E-3
MEAN_MOTION_DOT = .387E-4
MEAN_MOTION_DDOT = 0

CCSDS_OMM_VERS = 2.0
CREATION_DATE  = 
ORIGINATOR     = 

OBJECT_NAME    = TWILIGHT N
OBJECT_ID      = 2026-004N
CENTER_NAME    = EARTH
REF_FRAME      = TEME
TIME_SYSTEM    = UTC
MEAN_ELEMENT_THEORY = SGP/SGP4

EPOCH          = 2026-02-05T03:50:20.469696
MEAN_MOTION    = 14.87960801
ECCENTRICITY   = .00046861
INCLINATION    = 97.8012
RA_OF_ASC_NODE = 36.9224
ARG_OF_PERICENTER = 181.1101
MEAN_ANOMALY   = 179.0106

EPHEMERIS_TYPE = 0
CLASSIFICATION_TYPE = U
NORAD_CAT_ID   = 67375
ELEMENT_SET_NO = 999
REV_AT_EPOCH   = 366
BSTAR          = .43216802E-3
MEAN_MOTION_DOT = .391E-4
MEAN_MOTION_DDOT = 0

CCSDS_OMM_VERS = 2.0
CREATION_DATE  = 
ORIGINATOR     = 

OBJECT_NAME    = TWILIGHT P
OBJECT_ID      = 2026-004P
CENTER_NAME    = EARTH
REF_FRAME      = TEME
TIME_SYSTEM    = UTC
MEAN_ELEMENT_THEORY = SGP/SGP4

EPOCH          = 2026-02-05T03:53:52.556640
MEAN_MOTION    = 14.87802204
ECCENTRICITY   = .00050059
INCLINATION    = 97.8009
RA_OF_ASC_NODE = 36.9180
ARG_OF_PERICENTER = 187.4012
MEAN_ANOMALY   = 172.7131

EPHEMERIS_TYPE = 0
CLASSIFICATION_TYPE = U
NORAD_CAT_ID   = 67376
ELEMENT_SET_NO = 999
REV_AT_EPOCH   = 366
BSTAR          = .41939385E-3
MEAN_MOTION_DOT = .3777E-4
MEAN_MOTION_DDOT = 0

CCSDS_OMM_VERS = 2.0
CREATION_DATE  = 
ORIGINATOR     = 

OBJECT_NAME    = TWILIGHT Q
OBJECT_ID      = 2026-004Q
CENTER_NAME    = EARTH
REF_FRAME      = TEME
TIME_SYSTEM    = UTC
MEAN_ELEMENT_THEORY = SGP/SGP4

EPOCH          = 2026-02-05T05:26:47.055264
MEAN_MOTION    = 14.87980572
ECCENTRICITY   = .00046919
INCLINATION    = 97.8012
RA_OF_ASC_NODE = 36.9885
ARG_OF_PERICENTER = 179.7317
MEAN_ANOMALY   = 180.3903

EPHEMERIS_TYPE = 0
CLASSIFICATION_TYPE = U
NORAD_CAT_ID   = 67377
ELEMENT_SET_NO = 999
REV_AT_EPOCH   = 366
BSTAR          = .4212745E-3
MEAN_MOTION_DOT = .3811E-4
MEAN_MOTION_DDOT = 0

CCSDS_OMM_VERS = 2.0
CREATION_DATE  = 
ORIGINATOR     = 

OBJECT_NAME    = TWILIGHT R
OBJECT_ID      = 2026-004R
CENTER_NAME    = EARTH
REF_FRAME      = TEME
TIME_SYSTEM    = UTC
MEAN_ELEMENT_THEORY = SGP/SGP4

EPOCH          = 2026-02-05T03:55:36.339456
MEAN_MOTION    = 14.87734482
ECCENTRICITY   = .00043545
INCLINATION    = 97.7983
RA_OF_ASC_NODE = 36.9100
ARG_OF_PERICENTER = 195.9511
MEAN_ANOMALY   = 164.1569

EPHEMERIS_TYPE = 0
CLASSIFICATION_TYPE = U
NORAD_CAT_ID   = 67378
ELEMENT_SET_NO = 999
REV_AT_EPOCH   = 365
BSTAR          = .38795243E-3
MEAN_MOTION_DOT = .3484E-4
MEAN_MOTION_DDOT = 0

CCSDS_OMM_VERS = 2.0
CREATION_DATE  = 
ORIGINATOR     = 

OBJECT_NAME    = TWILIGHT S
OBJECT_ID      = 2026-004S
CENTER_NAME    = EARTH
REF_FRAME      = TEME
TIME_SYSTEM    = UTC
MEAN_ELEMENT_THEORY = SGP/SGP4

EPOCH          = 2026-02-05T05:32:11.963328
MEAN_MOTION    = 14.87743112
ECCENTRICITY   = .00048789
INCLINATION    = 97.7987
RA_OF_ASC_NODE = 36.9782
ARG_OF_PERICENTER = 192.6637
MEAN_ANOMALY   = 167.4458

EPHEMERIS_TYPE = 0
CLASSIFICATION_TYPE = U
NORAD_CAT_ID   = 67379
ELEMENT_SET_NO = 999
REV_AT_EPOCH   = 366
BSTAR          = .4364149E-3
MEAN_MOTION_DOT = .3927E-4
MEAN_MOTION_DDOT = 0

CCSDS_OMM_VERS = 2.0
CREATION_DATE  = 
ORIGINATOR     = 

OBJECT_NAME    = TWILIGHT T
OBJECT_ID      = 2026-004T
CENTER_NAME    = EARTH
REF_FRAME      = TEME
TIME_SYSTEM    = UTC
MEAN_ELEMENT_THEORY = SGP/SGP4

EPOCH          = 2026-02-05T03:53:09.487968
MEAN_MOTION    = 14.87843584
ECCENTRICITY   = .00044198
INCLINATION    = 97.7979
RA_OF_ASC_NODE = 36.9121
ARG_OF_PERICENTER = 191.3051
MEAN_ANOMALY   = 168.8067

EPHEMERIS_TYPE = 0
CLASSIFICATION_TYPE = U
NORAD_CAT_ID   = 67380
ELEMENT_SET_NO = 999
REV_AT_EPOCH   = 365
BSTAR          = .40235604E-3
MEAN_MOTION_DOT = .3625E-4
MEAN_MOTION_DDOT = 0

CCSDS_OMM_VERS = 2.0
CREATION_DATE  = 
ORIGINATOR     = 

OBJECT_NAME    = TWILIGHT U
OBJECT_ID      = 2026-004U
CENTER_NAME    = EARTH
REF_FRAME      = TEME
TIME_SYSTEM    = UTC
MEAN_ELEMENT_THEORY = SGP/SGP4

EPOCH          = 2026-02-05T05:26:41.954208
MEAN_MOTION    = 14.87995058
ECCENTRICITY   = .00048451
INCLINATION    = 97.8016
RA_OF_ASC_NODE = 36.9910
ARG_OF_PERICENTER = 181.2105
MEAN_ANOMALY   = 178.9100

EPHEMERIS_TYPE = 0
CLASSIFICATION_TYPE = U
NORAD_CAT_ID   = 67381
ELEMENT_SET_NO = 999
REV_AT_EPOCH   = 366
BSTAR          = .5292606E-3
MEAN_MOTION_DOT = .4805E-4
MEAN_MOTION_DDOT = 0

